start=new Date('2022-04-25T00:00:00.000Z').valueOf();
sats=[{"MEAN_MOTION":"15.06407067","SITE":"AFETR","ECCENTRICITY":"0.00016030","TLE_LINE2":"2 47606  53.0542 244.4341 0001603  68.2108 291.9052 15.06407067 67648","OBJECT_ID":"2021-009BL","LAUNCH_DATE":"2021-02-04","EPHEMERIS_TYPE":"0","DECAY_DATE":null,"REV_AT_EPOCH":"6764","OBJECT_TYPE":"PAYLOAD","SEMIMAJOR_AXIS":"6925.327","RA_OF_ASC_NODE":"244.4341","FILE":"3414186","TLE_LINE1":"1 47606U 21009BL  22114.55074973  .00003590  00000-0  25973-3 0  9991","TIME_SYSTEM":"UTC","PERIOD":"95.592","MEAN_ANOMALY":"291.9052","COUNTRY_CODE":"US","INCLINATION":"53.0542","CLASSIFICATION_TYPE":"U","MEAN_MOTION_DOT":"0.00003590","APOAPSIS":"548.302","MEAN_ELEMENT_THEORY":"SGP4","EPOCH":"2022-04-24T13:13:04.776672","OBJECT_NAME":"STARLINK-2024","PERIAPSIS":"546.082","ELEMENT_SET_NO":"999","MEAN_MOTION_DDOT":"0.0000000000000","REF_FRAME":"TEME","RCS_SIZE":"LARGE","CENTER_NAME":"EARTH","ARG_OF_PERICENTER":"68.2108","NORAD_CAT_ID":"47606","BSTAR":"0.00025973000000","GP_ID":"201934831"},{"MEAN_MOTION":"15.06402723","SITE":"AFETR","ECCENTRICITY":"0.00019470","TLE_LINE2":"2 47607  53.0543 244.5226 0001947  41.5626 318.5510 15.06402723 67631","OBJECT_ID":"2021-009BM","EPHEMERIS_TYPE":"0","LAUNCH_DATE":"2021-02-04","DECAY_DATE":null,"REV_AT_EPOCH":"6763","OBJECT_TYPE":"PAYLOAD","SEMIMAJOR_AXIS":"6925.340","RA_OF_ASC_NODE":"244.5226","FILE":"3414186","TLE_LINE1":"1 47607U 21009BM  22114.52863814  .00013000  00000-0  88996-3 0  9990","TIME_SYSTEM":"UTC","PERIOD":"95.592","COUNTRY_CODE":"US","MEAN_ANOMALY":"318.5510","INCLINATION":"53.0543","CLASSIFICATION_TYPE":"U","MEAN_MOTION_DOT":"0.00013000","APOAPSIS":"548.554","EPOCH":"2022-04-24T12:41:14.335296","MEAN_ELEMENT_THEORY":"SGP4","OBJECT_NAME":"STARLINK-2025","PERIAPSIS":"545.857","MEAN_MOTION_DDOT":"0.0000000000000","ELEMENT_SET_NO":"999","REF_FRAME":"TEME","RCS_SIZE":"LARGE","CENTER_NAME":"EARTH","ARG_OF_PERICENTER":"41.5626","NORAD_CAT_ID":"47607","BSTAR":"0.00088996000000","GP_ID":"201935081"},{"CLASSIFICATION_TYPE":"U","INCLINATION":"53.0550","MEAN_ANOMALY":"289.5074","COUNTRY_CODE":"US","OBJECT_NAME":"STARLINK-1528","EPOCH":"2022-04-24T19:27:17.256096","MEAN_ELEMENT_THEORY":"SGP4","APOAPSIS":"548.274","MEAN_MOTION_DOT":"-0.00000095","MEAN_MOTION_DDOT":"0.0000000000000","ELEMENT_SET_NO":"999","PERIAPSIS":"546.181","GP_ID":"201939923","BSTAR":"0.00001252100000","ARG_OF_PERICENTER":"70.6079","NORAD_CAT_ID":"47620","RCS_SIZE":"LARGE","CENTER_NAME":"EARTH","REF_FRAME":"TEME","ECCENTRICITY":"0.00015110","MEAN_MOTION":"15.06395485","SITE":"AFETR","DECAY_DATE":null,"REV_AT_EPOCH":"6621","LAUNCH_DATE":"2021-02-16","EPHEMERIS_TYPE":"0","TLE_LINE2":"2 47620  53.0550 303.2555 0001511  70.6079 289.5074 15.06395485 66215","OBJECT_ID":"2021-012A","FILE":"3414262","TLE_LINE1":"1 47620U 21012A   22114.81061639 -.00000095  00000-0  12521-4 0  9999","RA_OF_ASC_NODE":"303.2555","SEMIMAJOR_AXIS":"6925.362","OBJECT_TYPE":"PAYLOAD","PERIOD":"95.592","TIME_SYSTEM":"UTC"},{"ARG_OF_PERICENTER":"67.6095","NORAD_CAT_ID":"47621","BSTAR":"0.00009579400000","GP_ID":"201940460","REF_FRAME":"TEME","CENTER_NAME":"EARTH","RCS_SIZE":"LARGE","PERIAPSIS":"546.064","ELEMENT_SET_NO":"999","MEAN_MOTION_DDOT":"0.0000000000000","EPOCH":"2022-04-24T19:16:39.424512","MEAN_ELEMENT_THEORY":"SGP4","OBJECT_NAME":"STARLINK-1609","MEAN_MOTION_DOT":"0.00001146","APOAPSIS":"548.348","CLASSIFICATION_TYPE":"U","MEAN_ANOMALY":"292.5069","COUNTRY_CODE":"US","INCLINATION":"53.0539","PERIOD":"95.592","TIME_SYSTEM":"UTC","RA_OF_ASC_NODE":"303.2982","TLE_LINE1":"1 47621U 21012B   22114.80323408  .00001146  00000-0  95794-4 0  9994","FILE":"3414265","OBJECT_TYPE":"PAYLOAD","SEMIMAJOR_AXIS":"6925.341","LAUNCH_DATE":"2021-02-16","EPHEMERIS_TYPE":"0","REV_AT_EPOCH":"6621","DECAY_DATE":null,"OBJECT_ID":"2021-012B","TLE_LINE2":"2 47621  53.0539 303.2982 0001649  67.6095 292.5069 15.06402588 66214","ECCENTRICITY":"0.00016490","SITE":"AFETR","MEAN_MOTION":"15.06402588"},{"EPOCH":"2022-04-24T19:11:21.325632","MEAN_ELEMENT_THEORY":"SGP4","OBJECT_NAME":"STARLINK-1645","MEAN_MOTION_DOT":"-0.00000347","APOAPSIS":"548.248","CLASSIFICATION_TYPE":"U","MEAN_ANOMALY":"296.5389","COUNTRY_CODE":"US","INCLINATION":"53.0558","NORAD_CAT_ID":"47622","ARG_OF_PERICENTER":"63.5752","GP_ID":"201939965","BSTAR":"-0.00000440860000","REF_FRAME":"TEME","CENTER_NAME":"EARTH","RCS_SIZE":"LARGE","PERIAPSIS":"546.201","ELEMENT_SET_NO":"999","MEAN_MOTION_DDOT":"0.0000000000000","LAUNCH_DATE":"2021-02-16","EPHEMERIS_TYPE":"0","REV_AT_EPOCH":"6621","DECAY_DATE":null,"OBJECT_ID":"2021-012C","TLE_LINE2":"2 47622  53.0558 303.3048 0001478  63.5752 296.5389 15.06396472 66218","ECCENTRICITY":"0.00014780","SITE":"AFETR","MEAN_MOTION":"15.06396472","PERIOD":"95.592","TIME_SYSTEM":"UTC","RA_OF_ASC_NODE":"303.3048","TLE_LINE1":"1 47622U 21012C   22114.79955238 -.00000347  00000-0 -44086-5 0  9998","FILE":"3414265","OBJECT_TYPE":"PAYLOAD","SEMIMAJOR_AXIS":"6925.359"},{"GP_ID":"201940462","BSTAR":"0.00010985000000","NORAD_CAT_ID":"47623","ARG_OF_PERICENTER":"58.5000","RCS_SIZE":"LARGE","CENTER_NAME":"EARTH","REF_FRAME":"TEME","MEAN_MOTION_DDOT":"0.0000000000000","ELEMENT_SET_NO":"999","PERIAPSIS":"545.940","OBJECT_NAME":"STARLINK-1655","MEAN_ELEMENT_THEORY":"SGP4","EPOCH":"2022-04-24T17:52:23.314656","APOAPSIS":"548.425","MEAN_MOTION_DOT":"0.00001355","CLASSIFICATION_TYPE":"U","INCLINATION":"53.0567","MEAN_ANOMALY":"301.6164","COUNTRY_CODE":"US","PERIOD":"95.591","TIME_SYSTEM":"UTC","FILE":"3414265","TLE_LINE1":"1 47623U 21012D   22114.74471429  .00001355  00000-0  10985-3 0  9996","RA_OF_ASC_NODE":"238.5614","SEMIMAJOR_AXIS":"6925.317","OBJECT_TYPE":"PAYLOAD","DECAY_DATE":null,"REV_AT_EPOCH":"6712","EPHEMERIS_TYPE":"0","LAUNCH_DATE":"2021-02-16","TLE_LINE2":"2 47623  53.0567 238.5614 0001794  58.5000 301.6164 15.06410245 67123","OBJECT_ID":"2021-012D","ECCENTRICITY":"0.00017940","MEAN_MOTION":"15.06410245","SITE":"AFETR"},{"COUNTRY_CODE":"US","MEAN_ANOMALY":"284.4545","INCLINATION":"53.0544","CLASSIFICATION_TYPE":"U","MEAN_MOTION_DOT":"0.00000610","APOAPSIS":"548.402","EPOCH":"2022-04-24T11:21:36.358272","MEAN_ELEMENT_THEORY":"SGP4","OBJECT_NAME":"STARLINK-1669","PERIAPSIS":"545.966","MEAN_MOTION_DDOT":"0.0000000000000","ELEMENT_SET_NO":"999","REF_FRAME":"TEME","RCS_SIZE":"LARGE","CENTER_NAME":"EARTH","ARG_OF_PERICENTER":"75.6640","NORAD_CAT_ID":"47624","GP_ID":"201936084","BSTAR":"0.00005984000000","MEAN_MOTION":"15.06409727","SITE":"AFETR","ECCENTRICITY":"0.00017590","TLE_LINE2":"2 47624  53.0544 284.7789 0001759  75.6640 284.4545 15.06409727 66972","OBJECT_ID":"2021-012E","LAUNCH_DATE":"2021-02-16","EPHEMERIS_TYPE":"0","DECAY_DATE":null,"REV_AT_EPOCH":"6697","OBJECT_TYPE":"PAYLOAD","SEMIMAJOR_AXIS":"6925.319","RA_OF_ASC_NODE":"284.7789","FILE":"3414186","TLE_LINE1":"1 47624U 21012E   22114.47333748  .00000610  00000-0  59840-4 0  9995","TIME_SYSTEM":"UTC","PERIOD":"95.592"},{"REF_FRAME":"TEME","RCS_SIZE":"LARGE","CENTER_NAME":"EARTH","ARG_OF_PERICENTER":"73.3546","NORAD_CAT_ID":"47625","GP_ID":"201939972","BSTAR":"-0.00007319700000","PERIAPSIS":"546.327","MEAN_MOTION_DDOT":"0.0000000000000","ELEMENT_SET_NO":"999","MEAN_MOTION_DOT":"-0.00001371","APOAPSIS":"548.167","EPOCH":"2022-04-24T19:21:58.541184","MEAN_ELEMENT_THEORY":"SGP4","OBJECT_NAME":"STARLINK-1704","MEAN_ANOMALY":"286.7588","COUNTRY_CODE":"US","INCLINATION":"53.0533","CLASSIFICATION_TYPE":"U","TIME_SYSTEM":"UTC","PERIOD":"95.593","OBJECT_TYPE":"PAYLOAD","SEMIMAJOR_AXIS":"6925.382","RA_OF_ASC_NODE":"303.2809","FILE":"3414312","TLE_LINE1":"1 47625U 21012F   22114.80692756 -.00001371  00000-0 -73197-4 0  9998","TLE_LINE2":"2 47625  53.0533 303.2809 0001328  73.3546 286.7588 15.06389110 66215","OBJECT_ID":"2021-012F","EPHEMERIS_TYPE":"0","LAUNCH_DATE":"2021-02-16","DECAY_DATE":null,"REV_AT_EPOCH":"6621","MEAN_MOTION":"15.06389110","SITE":"AFETR","ECCENTRICITY":"0.00013280"},{"REV_AT_EPOCH":"6668","DECAY_DATE":null,"LAUNCH_DATE":"2021-02-16","EPHEMERIS_TYPE":"0","OBJECT_ID":"2021-012G","TLE_LINE2":"2 47626  53.0540 304.5417 0001690  71.2612 288.8561 15.06403414 66685","ECCENTRICITY":"0.00016900","SITE":"AFETR","MEAN_MOTION":"15.06403414","PERIOD":"95.592","TIME_SYSTEM":"UTC","TLE_LINE1":"1 47626U 21012G   22114.52679083  .00001546  00000-0  12265-3 0  9996","FILE":"3414186","RA_OF_ASC_NODE":"304.5417","SEMIMAJOR_AXIS":"6925.338","OBJECT_TYPE":"PAYLOAD","OBJECT_NAME":"STARLINK-1761","EPOCH":"2022-04-24T12:38:34.727712","MEAN_ELEMENT_THEORY":"SGP4","APOAPSIS":"548.373","MEAN_MOTION_DOT":"0.00001546","CLASSIFICATION_TYPE":"U","INCLINATION":"53.0540","COUNTRY_CODE":"US","MEAN_ANOMALY":"288.8561","BSTAR":"0.00012265000000","GP_ID":"201934583","ARG_OF_PERICENTER":"71.2612","NORAD_CAT_ID":"47626","CENTER_NAME":"EARTH","RCS_SIZE":"LARGE","REF_FRAME":"TEME","MEAN_MOTION_DDOT":"0.0000000000000","ELEMENT_SET_NO":"999","PERIAPSIS":"546.033"},{"COUNTRY_CODE":"US","MEAN_ANOMALY":"203.3318","INCLINATION":"53.0530","CLASSIFICATION_TYPE":"U","MEAN_MOTION_DOT":"0.00025616","APOAPSIS":"548.796","EPOCH":"2022-04-24T14:00:01.000224","MEAN_ELEMENT_THEORY":"SGP4","OBJECT_NAME":"STARLINK-1972","PERIAPSIS":"545.863","ELEMENT_SET_NO":"999","MEAN_MOTION_DDOT":"0.0000000000000","REF_FRAME":"TEME","CENTER_NAME":"EARTH","RCS_SIZE":"LARGE","ARG_OF_PERICENTER":"46.1021","NORAD_CAT_ID":"47627","GP_ID":"201904224","BSTAR":"0.00173410000000","SITE":"AFETR","MEAN_MOTION":"15.06362206","ECCENTRICITY":"0.00021170","OBJECT_ID":"2021-012H","TLE_LINE2":"2 47627  53.0530 209.2668 0002117  46.1021 203.3318 15.06362206 67501","LAUNCH_DATE":"2021-02-16","EPHEMERIS_TYPE":"0","REV_AT_EPOCH":"6750","DECAY_DATE":null,"OBJECT_TYPE":"PAYLOAD","SEMIMAJOR_AXIS":"6925.464","RA_OF_ASC_NODE":"209.2668","TLE_LINE1":"1 47627U 21012H   22114.58334491  .00025616  00000-0  17341-2 0  9997","FILE":"3413810","TIME_SYSTEM":"UTC","PERIOD":"95.595"}];
